ENIGMA-1
1 90001U 26200A   26180.50000000  .00001500  00000-0  70000-4 0  1003
2 90001  98.5000 100.0000 0010000  90.0000 270.0000 14.50000000  1005
PUPPET-2
1 90002U 26201A   26185.50000000  .00002000  00000-0  90000-4 0  1008
2 90002  51.6400 120.0000 0008000  60.0000 300.0000 15.20000000  1008
